{"type": "FeatureCollection", "features": [ {"type": "Feature", "properties": {"norad_id": 66390, "name": "STARLINK-35665", "group": "last-30-days", "lat": 41.52378891779339, "lon": 57.06784618172479, "alt_km": 412.5363045587537, "timestamp": "2025-12-09T14:52:24.940112+00:00", "meta": {"OBJECT_NAME": "STARLINK-35665", "OBJECT_ID": "2025-257L", "EPOCH": "2025-12-09T03:30:13.837536", "MEAN_MOTION": 15.49328138, "ECCENTRICITY": 0.00013448, "INCLINATION": 53.1588, "RA_OF_ASC_NODE": 280.9304, "ARG_OF_PERICENTER": 68.4368, "MEAN_ANOMALY": 291.6785, "EPHEMERIS_TYPE": 0, "CLASSIFICATION_TYPE": "U", "NORAD_CAT_ID": 66390, "ELEMENT_SET_NO": 999, "REV_AT_EPOCH": 592, "BSTAR": 0.00097328325, "MEAN_MOTION_DOT": 0.00054094, "MEAN_MOTION_DDOT": 0}, "tle": {"line1": "1 66390U 25257L   25343.14599349  .00054094  00000+0  97328-3 0  9999", "line2": "2 66390  53.1588 280.9304 0001344  68.4368 291.6785 15.49328138  5927"}}, "geometry": {"type": "Point", "coordinates": [57.06784618172479, 41.52378891779339]}}, {"type": "Feature", "properties": {"norad_id": 66391, "name": "STARLINK-35656", "group": "last-30-days", "lat": -53.08374568914599, "lon": -174.57880964443106, "alt_km": 452.569372611968, "timestamp": "2025-12-09T14:52:24.940124+00:00", "meta": {"OBJECT_NAME": "STARLINK-35656", "OBJECT_ID": "2025-257M", "EPOCH": "2025-12-09T02:48:35.648928", "MEAN_MOTION": 15.39625568, "ECCENTRICITY": 0.00011473, "INCLINATION": 53.1595, "RA_OF_ASC_NODE": 281.4538, "ARG_OF_PERICENTER": 91.2559, "MEAN_ANOMALY": 268.8577, "EPHEMERIS_TYPE": 0, "CLASSIFICATION_TYPE": "U", "NORAD_CAT_ID": 66391, "ELEMENT_SET_NO": 999, "REV_AT_EPOCH": 591, "BSTAR": 0.0020518175, "MEAN_MOTION_DOT": 0.0008258, "MEAN_MOTION_DDOT": 0}, "tle": {"line1": "1 66391U 25257M   25343.11707927  .00082580  00000+0  20518-2 0  9997", "line2": "2 66391  53.1595 281.4538 0001147  91.2559 268.8577 15.39625568  5918"}}, "geometry": {"type": "Point", "coordinates": [-174.57880964443106, -53.08374568914599]}}, {"type": "Feature", "properties": {"norad_id": 66392, "name": "STARLINK-35671", "group": "last-30-days", "lat": -45.955395708958676, "lon": 149.96263728145593, "alt_km": 452.2614609303055, "timestamp": "2025-12-09T14:52:24.940135+00:00", "meta": {"OBJECT_NAME": "STARLINK-35671", "OBJECT_ID": "2025-257N", "EPOCH": "2025-12-09T02:54:48.330144", "MEAN_MOTION": 15.39651087, "ECCENTRICITY": 0.00010619, "INCLINATION": 53.1605, "RA_OF_ASC_NODE": 281.4947, "ARG_OF_PERICENTER": 84.7676, "MEAN_ANOMALY": 275.345, "EPHEMERIS_TYPE": 0, "CLASSIFICATION_TYPE": "U", "NORAD_CAT_ID": 66392, "ELEMENT_SET_NO": 999, "REV_AT_EPOCH": 581, "BSTAR": 0.0013579715, "MEAN_MOTION_DOT": 0.00054362, "MEAN_MOTION_DDOT": 0}, "tle": {"line1": "1 66392U 25257N   25343.12139271  .00054362  00000+0  13580-2 0  9998", "line2": "2 66392  53.1605 281.4947 0001061  84.7676 275.3450 15.39651087  5814"}}, "geometry": {"type": "Point", "coordinates": [149.96263728145593, -45.955395708958676]}}, {"type": "Feature", "properties": {"norad_id": 66393, "name": "STARLINK-35652", "group": "last-30-days", "lat": -47.24639289126971, "lon": -135.14339272705723, "alt_km": 452.45053368397566, "timestamp": "2025-12-09T14:52:24.940146+00:00", "meta": {"OBJECT_NAME": "STARLINK-35652", "OBJECT_ID": "2025-257P", "EPOCH": "2025-12-09T08:00:01.999872", "MEAN_MOTION": 15.39559975, "ECCENTRICITY": 0.00010542, "INCLINATION": 53.1588, "RA_OF_ASC_NODE": 280.3973, "ARG_OF_PERICENTER": 68.5728, "MEAN_ANOMALY": 76.7434, "EPHEMERIS_TYPE": 0, "CLASSIFICATION_TYPE": "U", "NORAD_CAT_ID": 66393, "ELEMENT_SET_NO": 999, "REV_AT_EPOCH": 594, "BSTAR": 0.0020278923, "MEAN_MOTION_DOT": 0.00081424, "MEAN_MOTION_DDOT": 0}, "tle": {"line1": "1 66393U 25257P   25343.33335648  .00081424  00000+0  20279-2 0  9990", "line2": "2 66393  53.1588 280.3973 0001054  68.5728  76.7434 15.39559975  5944"}}, "geometry": {"type": "Point", "coordinates": [-135.14339272705723, -47.24639289126971]}}, {"type": "Feature", "properties": {"norad_id": 66394, "name": "STARLINK-35672", "group": "last-30-days", "lat": -46.29808203432262, "lon": -132.6337135778822, "alt_km": 452.2046577802221, "timestamp": "2025-12-09T14:52:24.940157+00:00", "meta": {"OBJECT_NAME": "STARLINK-35672", "OBJECT_ID": "2025-257Q", "EPOCH": "2025-12-09T02:41:25.904832", "MEAN_MOTION": 15.39631651, "ECCENTRICITY": 0.00012385, "INCLINATION": 53.1593, "RA_OF_ASC_NODE": 281.4337, "ARG_OF_PERICENTER": 83.799, "MEAN_ANOMALY": 276.3156, "EPHEMERIS_TYPE": 0, "CLASSIFICATION_TYPE": "U", "NORAD_CAT_ID": 66394, "ELEMENT_SET_NO": 999, "REV_AT_EPOCH": 581, "BSTAR": 0.0028492606, "MEAN_MOTION_DOT": 0.00115352, "MEAN_MOTION_DDOT": 0}, "tle": {"line1": "1 66394U 25257Q   25343.11210538  .00115352  00000+0  28493-2 0  9991", "line2": "2 66394  53.1593 281.4337 0001238  83.7990 276.3156 15.39631651  5818"}}, "geometry": {"type": "Point", "coordinates": [-132.6337135778822, -46.29808203432262]}}, {"type": "Feature", "properties": {"norad_id": 66395, "name": "STARLINK-35681", "group": "last-30-days", "lat": -31.569260217191626, "lon": -108.43509661818477, "alt_km": 451.52569596790636, "timestamp": "2025-12-09T14:52:24.940171+00:00", "meta": {"OBJECT_NAME": "STARLINK-35681", "OBJECT_ID": "2025-257R", "EPOCH": "2025-12-09T08:00:01.999872", "MEAN_MOTION": 15.39556904, "ECCENTRICITY": 8.163e-05, "INCLINATION": 53.1593, "RA_OF_ASC_NODE": 280.346, "ARG_OF_PERICENTER": 80.7496, "MEAN_ANOMALY": 90.3364, "EPHEMERIS_TYPE": 0, "CLASSIFICATION_TYPE": "U", "NORAD_CAT_ID": 66395, "ELEMENT_SET_NO": 999, "REV_AT_EPOCH": 578, "BSTAR": 0.0019556111, "MEAN_MOTION_DOT": 0.00078469, "MEAN_MOTION_DDOT": 0}, "tle": {"line1": "1 66395U 25257R   25343.33335648  .00078469  00000+0  19556-2 0  9993", "line2": "2 66395  53.1593 280.3460 0000816  80.7496  90.3364 15.39556904  5781"}}, "geometry": {"type": "Point", "coordinates": [-108.43509661818477, -31.569260217191626]}}, {"type": "Feature", "properties": {"norad_id": 66396, "name": "STARLINK-35669", "group": "last-30-days", "lat": -30.258437182117667, "lon": -106.94518612312478, "alt_km": 451.4439221730281, "timestamp": "2025-12-09T14:52:24.940183+00:00", "meta": {"OBJECT_NAME": "STARLINK-35669", "OBJECT_ID": "2025-257S", "EPOCH": "2025-12-09T08:00:01.999872", "MEAN_MOTION": 15.39554834, "ECCENTRICITY": 9.229e-05, "INCLINATION": 53.1594, "RA_OF_ASC_NODE": 280.3413, "ARG_OF_PERICENTER": 78.0251, "MEAN_ANOMALY": 94.9, "EPHEMERIS_TYPE": 0, "CLASSIFICATION_TYPE": "U", "NORAD_CAT_ID": 66396, "ELEMENT_SET_NO": 999, "REV_AT_EPOCH": 594, "BSTAR": 0.0019711206, "MEAN_MOTION_DOT": 0.00079095, "MEAN_MOTION_DDOT": 0}, "tle": {"line1": "1 66396U 25257S   25343.33335648  .00079095  00000+0  19711-2 0  9993", "line2": "2 66396  53.1594 280.3413 0000922  78.0251  94.9000 15.39554834  5943"}}, "geometry": {"type": "Point", "coordinates": [-106.94518612312478, -30.258437182117667]}}, {"type": "Feature", "properties": {"norad_id": 66397, "name": "STARLINK-35510", "group": "last-30-days", "lat": -12.07353389686744, "lon": -90.28358758989236, "alt_km": 449.6292898057327, "timestamp": "2025-12-09T14:52:24.940193+00:00", "meta": {"OBJECT_NAME": "STARLINK-35510", "OBJECT_ID": "2025-257T", "EPOCH": "2025-12-09T08:00:01.999872", "MEAN_MOTION": 15.39563678, "ECCENTRICITY": 0.00013034, "INCLINATION": 53.1597, "RA_OF_ASC_NODE": 280.2942, "ARG_OF_PERICENTER": 76.0118, "MEAN_ANOMALY": 120.8081, "EPHEMERIS_TYPE": 0, "CLASSIFICATION_TYPE": "U", "NORAD_CAT_ID": 66397, "ELEMENT_SET_NO": 999, "REV_AT_EPOCH": 594, "BSTAR": 0.001887516, "MEAN_MOTION_DOT": 0.00075712, "MEAN_MOTION_DDOT": 0}, "tle": {"line1": "1 66397U 25257T   25343.33335648  .00075712  00000+0  18875-2 0  9996", "line2": "2 66397  53.1597 280.2942 0001303  76.0118 120.8081 15.39563678  5941"}}, "geometry": {"type": "Point", "coordinates": [-90.28358758989236, -12.07353389686744]}}, {"type": "Feature", "properties": {"norad_id": 66398, "name": "STARLINK-35642", "group": "last-30-days", "lat": 8.46463553718177, "lon": -74.70102014022969, "alt_km": 446.4953433392666, "timestamp": "2025-12-09T14:52:24.940204+00:00", "meta": {"OBJECT_NAME": "STARLINK-35642", "OBJECT_ID": "2025-257U", "EPOCH": "2025-12-09T08:00:01.999872", "MEAN_MOTION": 15.39565785, "ECCENTRICITY": 0.00015156, "INCLINATION": 53.1595, "RA_OF_ASC_NODE": 280.2426, "ARG_OF_PERICENTER": 70.9329, "MEAN_ANOMALY": 151.6383, "EPHEMERIS_TYPE": 0, "CLASSIFICATION_TYPE": "U", "NORAD_CAT_ID": 66398, "ELEMENT_SET_NO": 999, "REV_AT_EPOCH": 595, "BSTAR": 0.0019480379, "MEAN_MOTION_DOT": 0.00078184, "MEAN_MOTION_DDOT": 0}, "tle": {"line1": "1 66398U 25257U   25343.33335648  .00078184  00000+0  19480-2 0  9996", "line2": "2 66398  53.1595 280.2426 0001515  70.9329 151.6383 15.39565785  5958"}}, "geometry": {"type": "Point", "coordinates": [-74.70102014022969, 8.46463553718177]}}, {"type": "Feature", "properties": {"norad_id": 66399, "name": "STARLINK-35657", "group": "last-30-days", "lat": -10.617364264812313, "lon": -89.13897011830248, "alt_km": 449.5222146164888, "timestamp": "2025-12-09T14:52:24.940215+00:00", "meta": {"OBJECT_NAME": "STARLINK-35657", "OBJECT_ID": "2025-257V", "EPOCH": "2025-12-09T08:00:01.999872", "MEAN_MOTION": 15.39559673, "ECCENTRICITY": 0.00010791, "INCLINATION": 53.1596, "RA_OF_ASC_NODE": 280.29, "ARG_OF_PERICENTER": 81.2976, "MEAN_ANOMALY": 117.3647, "EPHEMERIS_TYPE": 0, "CLASSIFICATION_TYPE": "U", "NORAD_CAT_ID": 66399, "ELEMENT_SET_NO": 999, "REV_AT_EPOCH": 595, "BSTAR": 0.0019384931, "MEAN_MOTION_DOT": 0.00077778, "MEAN_MOTION_DDOT": 0}, "tle": {"line1": "1 66399U 25257V   25343.33335648  .00077778  00000+0  19385-2 0  9999", "line2": "2 66399  53.1596 280.2900 0001079  81.2976 117.3647 15.39559673  5956"}}, "geometry": {"type": "Point", "coordinates": [-89.13897011830248, -10.617364264812313]}}]}